{
  "type": "FeatureCollection",
  "features": [
    {
      "type": "Feature",
      "properties": {
        "norad_id": 33805,
        "name": "COSMOS 2251 DEB",
        "group": "cosmos-2251-debris",
        "lat": 74.01859491812107,
        "lon": 48.848698821934946,
        "alt_km": 669.4663961082333,
        "timestamp": "2025-12-09T09:46:48.038162+00:00",
        "meta_object_name": "COSMOS 2251 DEB",
        "meta_object_id": "1993-036AW",
        "meta_epoch": "2025-12-09T01:07:53.830848",
        "meta_mean_motion": 14.57842138,
        "meta_eccentricity": 0.006033,
        "meta_inclination": 74.0318,
        "meta_ra_of_asc_node": 318.3556,
        "meta_arg_of_pericenter": 148.4007,
        "meta_mean_anomaly": 212.0803,
        "meta_ephemeris_type": 0,
        "meta_classification_type": "U",
        "meta_norad_cat_id": 33805,
        "meta_element_set_no": 999,
        "meta_rev_at_epoch": 89173,
        "meta_bstar": 0.00033969,
        "meta_mean_motion_dot": 1.565e-05,
        "meta_mean_motion_ddot": 0,
        "tle_line1": "1 33805U 93036AW  25343.04715082  .00001565  00000+0  33969-3 0  9993",
        "tle_line2": "2 33805  74.0318 318.3556 0060330 148.4007 212.0803 14.57842138891738"
      },
      "geometry": {
        "type": "Point",
        "coordinates": [
          48.848698821934946,
          74.01859491812107
        ]
      }
    },
    {
      "type": "Feature",
      "properties": {
        "norad_id": 33811,
        "name": "COSMOS 2251 DEB",
        "group": "cosmos-2251-debris",
        "lat": 62.90464508558961,
        "lon": 95.0366703354648,
        "alt_km": 541.4224130858383,
        "timestamp": "2025-12-09T09:46:48.038182+00:00",
        "meta_object_name": "COSMOS 2251 DEB",
        "meta_object_id": "1993-036BC",
        "meta_epoch": "2025-12-09T01:38:12.962976",
        "meta_mean_motion": 15.05080547,
        "meta_eccentricity": 0.0030701,
        "meta_inclination": 73.8381,
        "meta_ra_of_asc_node": 310.2695,
        "meta_arg_of_pericenter": 31.5287,
        "meta_mean_anomaly": 42.4911,
        "meta_ephemeris_type": 0,
        "meta_classification_type": "U",
        "meta_norad_cat_id": 33811,
        "meta_element_set_no": 999,
        "meta_rev_at_epoch": 89963,
        "meta_bstar": 0.0014587,
        "meta_mean_motion_dot": 0.00020987,
        "meta_mean_motion_ddot": 0,
        "tle_line1": "1 33811U 93036BC  25343.06820559  .00020987  00000+0  14587-2 0  9991",
        "tle_line2": "2 33811  73.8381 310.2695 0030701  31.5287  42.4911 15.05080547899632"
      },
      "geometry": {
        "type": "Point",
        "coordinates": [
          95.0366703354648,
          62.90464508558961
        ]
      }
    },
    {
      "type": "Feature",
      "properties": {
        "norad_id": 33815,
        "name": "COSMOS 2251 DEB",
        "group": "cosmos-2251-debris",
        "lat": 32.03387807698851,
        "lon": -166.04838385938547,
        "alt_km": 515.5053116488089,
        "timestamp": "2025-12-09T09:46:48.038199+00:00",
        "meta_object_name": "COSMOS 2251 DEB",
        "meta_object_id": "1993-036BG",
        "meta_epoch": "2025-12-08T23:04:54.503616",
        "meta_mean_motion": 15.16639862,
        "meta_eccentricity": 0.00030177,
        "meta_inclination": 73.9528,
        "meta_ra_of_asc_node": 184.5101,
        "meta_arg_of_pericenter": 229.9077,
        "meta_mean_anomaly": 250.8357,
        "meta_ephemeris_type": 0,
        "meta_classification_type": "U",
        "meta_norad_cat_id": 33815,
        "meta_element_set_no": 999,
        "meta_rev_at_epoch": 88313,
        "meta_bstar": 0.006461729,
        "meta_mean_motion_dot": 0.00128686,
        "meta_mean_motion_ddot": 0,
        "tle_line1": "1 33815U 93036BG  25342.96174194  .00128686  00000+0  64617-2 0  9994",
        "tle_line2": "2 33815  73.9528 184.5101 0003017 229.9077 250.8357 15.16639862883133"
      },
      "geometry": {
        "type": "Point",
        "coordinates": [
          -166.04838385938547,
          32.03387807698851
        ]
      }
    },
    {
      "type": "Feature",
      "properties": {
        "norad_id": 33816,
        "name": "COSMOS 2251 DEB",
        "group": "cosmos-2251-debris",
        "lat": 70.09305662168542,
        "lon": 163.9662406462787,
        "alt_km": 813.8694858026201,
        "timestamp": "2025-12-09T09:46:48.038211+00:00",
        "meta_object_name": "COSMOS 2251 DEB",
        "meta_object_id": "1993-036BH",
        "meta_epoch": "2025-12-08T19:30:15.806880",
        "meta_mean_motion": 13.81776004,
        "meta_eccentricity": 0.02649297,
        "meta_inclination": 73.8945,
        "meta_ra_of_asc_node": 112.0515,
        "meta_arg_of_pericenter": 125.7474,
        "meta_mean_anomaly": 236.8604,
        "meta_ephemeris_type": 0,
        "meta_classification_type": "U",
        "meta_norad_cat_id": 33816,
        "meta_element_set_no": 999,
        "meta_rev_at_epoch": 84619,
        "meta_bstar": 0.00097318108,
        "meta_mean_motion_dot": 1.339e-05,
        "meta_mean_motion_ddot": 0,
        "tle_line1": "1 33816U 93036BH  25342.81268295  .00001339  00000+0  97318-3 0  9995",
        "tle_line2": "2 33816  73.8945 112.0515 0264929 125.7474 236.8604 13.81776004846190"
      },
      "geometry": {
        "type": "Point",
        "coordinates": [
          163.9662406462787,
          70.09305662168542
        ]
      }
    },
    {
      "type": "Feature",
      "properties": {
        "norad_id": 33818,
        "name": "COSMOS 2251 DEB",
        "group": "cosmos-2251-debris",
        "lat": -16.558463629327214,
        "lon": 168.2574225583054,
        "alt_km": 553.8342776397176,
        "timestamp": "2025-12-09T09:46:48.038222+00:00",
        "meta_object_name": "COSMOS 2251 DEB",
        "meta_object_id": "1993-036BK",
        "meta_epoch": "2025-12-08T23:26:25.440576",
        "meta_mean_motion": 15.12033467,
        "meta_eccentricity": 0.00280489,
        "meta_inclination": 74.0755,
        "meta_ra_of_asc_node": 174.0167,
        "meta_arg_of_pericenter": 164.1684,
        "meta_mean_anomaly": 354.6151,
        "meta_ephemeris_type": 0,
        "meta_classification_type": "U",
        "meta_norad_cat_id": 33818,
        "meta_element_set_no": 999,
        "meta_rev_at_epoch": 89805,
        "meta_bstar": 0.0025467031,
        "meta_mean_motion_dot": 0.00044425,
        "meta_mean_motion_ddot": 0,
        "tle_line1": "1 33818U 93036BK  25342.97668334  .00044425  00000+0  25467-2 0  9990",
        "tle_line2": "2 33818  74.0755 174.0167 0028048 164.1684 354.6151 15.12033467898058"
      },
      "geometry": {
        "type": "Point",
        "coordinates": [
          168.2574225583054,
          -16.558463629327214
        ]
      }
    },
    {
      "type": "Feature",
      "properties": {
        "norad_id": 33819,
        "name": "COSMOS 2251 DEB",
        "group": "cosmos-2251-debris",
        "lat": -13.912711035926225,
        "lon": -148.15435728522266,
        "alt_km": 790.9185205774465,
        "timestamp": "2025-12-09T09:46:48.038233+00:00",
        "meta_object_name": "COSMOS 2251 DEB",
        "meta_object_id": "1993-036BL",
        "meta_epoch": "2025-12-08T19:06:06.865920",
        "meta_mean_motion": 14.32203322,
        "meta_eccentricity": 0.00889375,
        "meta_inclination": 74.1791,
        "meta_ra_of_asc_node": 216.9791,
        "meta_arg_of_pericenter": 79.5134,
        "meta_mean_anomaly": 355.115,
        "meta_ephemeris_type": 0,
        "meta_classification_type": "U",
        "meta_norad_cat_id": 33819,
        "meta_element_set_no": 999,
        "meta_rev_at_epoch": 87439,
        "meta_bstar": 0.0011045221,
        "meta_mean_motion_dot": 3.086e-05,
        "meta_mean_motion_ddot": 0,
        "tle_line1": "1 33819U 93036BL  25342.79591280  .00003086  00000+0  11045-2 0  9991",
        "tle_line2": "2 33819  74.1791 216.9791 0088937  79.5134 355.1150 14.32203322874397"
      },
      "geometry": {
        "type": "Point",
        "coordinates": [
          -148.15435728522266,
          -13.912711035926225
        ]
      }
    },
    {
      "type": "Feature",
      "properties": {
        "norad_id": 33821,
        "name": "COSMOS 2251 DEB",
        "group": "cosmos-2251-debris",
        "lat": -9.254920268921389,
        "lon": 147.20568566075062,
        "alt_km": 529.9100593699313,
        "timestamp": "2025-12-09T09:46:48.038244+00:00",
        "meta_object_name": "COSMOS 2251 DEB",
        "meta_object_id": "1993-036BN",
        "meta_epoch": "2025-12-08T21:13:35.685984",
        "meta_mean_motion": 15.2494624,
        "meta_eccentricity": 0.00528386,
        "meta_inclination": 74.0299,
        "meta_ra_of_asc_node": 150.9851,
        "meta_arg_of_pericenter": 185.4158,
        "meta_mean_anomaly": 174.6478,
        "meta_ephemeris_type": 0,
        "meta_classification_type": "U",
        "meta_norad_cat_id": 33821,
        "meta_element_set_no": 999,
        "meta_rev_at_epoch": 74942,
        "meta_bstar": 0.0014441641,
        "meta_mean_motion_dot": 0.00037598,
        "meta_mean_motion_ddot": 0,
        "tle_line1": "1 33821U 93036BN  25342.88444081  .00037598  00000+0  14442-2 0  9999",
        "tle_line2": "2 33821  74.0299 150.9851 0052838 185.4158 174.6478 15.24946240749427"
      },
      "geometry": {
        "type": "Point",
        "coordinates": [
          147.20568566075062,
          -9.254920268921389
        ]
      }
    }
  ]
}